[{"OBJECT_NAME":"ONEWEB-0681","OBJECT_ID":"2023-068H","EPOCH":"2025-12-11T06:33:35.514144","MEAN_MOTION":13.21824946,"ECCENTRICITY":0.00024332,"INCLINATION":87.9215,"RA_OF_ASC_NODE":281.456,"ARG_OF_PERICENTER":100.5574,"MEAN_ANOMALY":259.5835,"EPHEMERIS_TYPE":0,"CLASSIFICATION_TYPE":"U","NORAD_CAT_ID":56717,"ELEMENT_SET_NO":999,"REV_AT_EPOCH":12626,"BSTAR":1.916831e-5,"MEAN_MOTION_DOT":2.1e-7,"MEAN_MOTION_DDOT":0},{"OBJECT_NAME":"ONEWEB-0682","OBJECT_ID":"2023-068J","EPOCH":"2025-12-11T05:57:47.871936","MEAN_MOTION":13.15545892,"ECCENTRICITY":0.00013118,"INCLINATION":87.8991,"RA_OF_ASC_NODE":296.6992,"ARG_OF_PERICENTER":87.4981,"MEAN_ANOMALY":272.63,"EPHEMERIS_TYPE":0,"CLASSIFICATION_TYPE":"U","NORAD_CAT_ID":56718,"ELEMENT_SET_NO":999,"REV_AT_EPOCH":12474,"BSTAR":0.00020111037,"MEAN_MOTION_DOT":8.9e-7,"MEAN_MOTION_DDOT":0},{"OBJECT_NAME":"ONEWEB-0683","OBJECT_ID":"2023-068K","EPOCH":"2025-12-11T06:28:36.886368","MEAN_MOTION":13.1554949,"ECCENTRICITY":0.00015355,"INCLINATION":87.9,"RA_OF_ASC_NODE":296.6792,"ARG_OF_PERICENTER":78.5238,"MEAN_ANOMALY":281.6065,"EPHEMERIS_TYPE":0,"CLASSIFICATION_TYPE":"U","NORAD_CAT_ID":56719,"ELEMENT_SET_NO":999,"REV_AT_EPOCH":12471,"BSTAR":-3.9113752e-5,"MEAN_MOTION_DOT":-2.0e-8,"MEAN_MOTION_DDOT":0},{"OBJECT_NAME":"ONEWEB-0684","OBJECT_ID":"2023-068L","EPOCH":"2025-12-11T06:40:00.039936","MEAN_MOTION":13.15547349,"ECCENTRICITY":0.00028023,"INCLINATION":87.9,"RA_OF_ASC_NODE":296.672,"ARG_OF_PERICENTER":53.8431,"MEAN_ANOMALY":306.2958,"EPHEMERIS_TYPE":0,"CLASSIFICATION_TYPE":"U","NORAD_CAT_ID":56720,"ELEMENT_SET_NO":999,"REV_AT_EPOCH":12454,"BSTAR":-7.071845e-6,"MEAN_MOTION_DOT":1.0e-7,"MEAN_MOTION_DDOT":0},{"OBJECT_NAME":"ONEWEB-0686","OBJECT_ID":"2023-068M","EPOCH":"2025-12-11T06:04:52.391424","MEAN_MOTION":13.15057287,"ECCENTRICITY":0.00015786,"INCLINATION":87.9036,"RA_OF_ASC_NODE":266.2267,"ARG_OF_PERICENTER":62.4805,"MEAN_ANOMALY":297.6485,"EPHEMERIS_TYPE":0,"CLASSIFICATION_TYPE":"U","NORAD_CAT_ID":56721,"ELEMENT_SET_NO":999,"REV_AT_EPOCH":12698,"BSTAR":0.00040194929,"MEAN_MOTION_DOT":1.63e-6,"MEAN_MOTION_DDOT":0},{"OBJECT_NAME":"ONEWEB-0694","OBJECT_ID":"2023-068N","EPOCH":"2025-12-11T06:28:44.025600","MEAN_MOTION":13.16594709,"ECCENTRICITY":0.00012523,"INCLINATION":87.9055,"RA_OF_ASC_NODE":266.1573,"ARG_OF_PERICENTER":74.456,"MEAN_ANOMALY":285.6709,"EPHEMERIS_TYPE":0,"CLASSIFICATION_TYPE":"U","NORAD_CAT_ID":56722,"ELEMENT_SET_NO":999,"REV_AT_EPOCH":12704,"BSTAR":6.4930498e-5,"MEAN_MOTION_DOT":3.8e-7,"MEAN_MOTION_DDOT":0},{"OBJECT_NAME":"ONEWEB-0696","OBJECT_ID":"2023-068P","EPOCH":"2025-12-11T05:38:24.903744","MEAN_MOTION":13.15548896,"ECCENTRICITY":0.00021213,"INCLINATION":87.8988,"RA_OF_ASC_NODE":296.7334,"ARG_OF_PERICENTER":75.0248,"MEAN_ANOMALY":285.1117,"EPHEMERIS_TYPE":0,"CLASSIFICATION_TYPE":"U","NORAD_CAT_ID":56723,"ELEMENT_SET_NO":999,"REV_AT_EPOCH":12465,"BSTAR":0.00014353401,"MEAN_MOTION_DOT":6.7e-7,"MEAN_MOTION_DDOT":0},{"OBJECT_NAME":"ONEWEB-0703","OBJECT_ID":"2023-068Q","EPOCH":"2025-12-11T05:52:06.218688","MEAN_MOTION":13.15549922,"ECCENTRICITY":0.00028357,"INCLINATION":87.8985,"RA_OF_ASC_NODE":296.7133,"ARG_OF_PERICENTER":80.0735,"MEAN_ANOMALY":280.0715,"EPHEMERIS_TYPE":0,"CLASSIFICATION_TYPE":"U","NORAD_CAT_ID":56724,"ELEMENT_SET_NO":999,"REV_AT_EPOCH":12454,"BSTAR":0.0004640495,"MEAN_MOTION_DOT":1.88e-6,"MEAN_MOTION_DDOT":0},{"OBJECT_NAME":"ONEWEB-0721","OBJECT_ID":"2023-068R","EPOCH":"2025-12-11T04:50:08.155392","MEAN_MOTION":13.22454026,"ECCENTRICITY":0.00014063,"INCLINATION":86.6794,"RA_OF_ASC_NODE":145.4846,"ARG_OF_PERICENTER":95.8324,"MEAN_ANOMALY":264.297,"EPHEMERIS_TYPE":0,"CLASSIFICATION_TYPE":"U","NORAD_CAT_ID":56725,"ELEMENT_SET_NO":999,"REV_AT_EPOCH":13309,"BSTAR":-3.9885103e-5,"MEAN_MOTION_DOT":-2.0e-8,"MEAN_MOTION_DDOT":0},{"OBJECT_NAME":"ONEWEB-0015","OBJECT_ID":"2024-188A","EPOCH":"2025-12-11T05:42:35.420544","MEAN_MOTION":13.11418406,"ECCENTRICITY":0.00018967,"INCLINATION":87.8857,"RA_OF_ASC_NODE":58.5278,"ARG_OF_PERICENTER":122.0731,"MEAN_ANOMALY":238.0581,"EPHEMERIS_TYPE":0,"CLASSIFICATION_TYPE":"U","NORAD_CAT_ID":61594,"ELEMENT_SET_NO":999,"REV_AT_EPOCH":5982,"BSTAR":-0.0013687744,"MEAN_MOTION_DOT":-4.72e-6,"MEAN_MOTION_DDOT":0},{"OBJECT_NAME":"ONEWEB-0687","OBJECT_ID":"2024-188B","EPOCH":"2025-12-11T05:06:26.599104","MEAN_MOTION":13.17649353,"ECCENTRICITY":0.00014323,"INCLINATION":87.9101,"RA_OF_ASC_NODE":43.2754,"ARG_OF_PERICENTER":118.9767,"MEAN_ANOMALY":241.1508,"EPHEMERIS_TYPE":0,"CLASSIFICATION_TYPE":"U","NORAD_CAT_ID":61595,"ELEMENT_SET_NO":999,"REV_AT_EPOCH":6114,"BSTAR":-0.0010120943,"MEAN_MOTION_DOT":-3.8e-6,"MEAN_MOTION_DDOT":0},{"OBJECT_NAME":"ONEWEB-0688","OBJECT_ID":"2024-188C","EPOCH":"2025-12-11T05:47:45.739104","MEAN_MOTION":13.1764844,"ECCENTRICITY":0.00024487,"INCLINATION":87.9102,"RA_OF_ASC_NODE":43.2703,"ARG_OF_PERICENTER":132.5826,"MEAN_ANOMALY":227.5512,"EPHEMERIS_TYPE":0,"CLASSIFICATION_TYPE":"U","NORAD_CAT_ID":61596,"ELEMENT_SET_NO":999,"REV_AT_EPOCH":6114,"BSTAR":-2.3303131e-5,"MEAN_MOTION_DOT":4.0e-8,"MEAN_MOTION_DDOT":0},{"OBJECT_NAME":"ONEWEB-0689","OBJECT_ID":"2024-188D","EPOCH":"2025-12-11T06:31:26.010912","MEAN_MOTION":13.11418876,"ECCENTRICITY":0.00013766,"INCLINATION":87.8848,"RA_OF_ASC_NODE":58.4555,"ARG_OF_PERICENTER":106.4802,"MEAN_ANOMALY":253.6478,"EPHEMERIS_TYPE":0,"CLASSIFICATION_TYPE":"U","NORAD_CAT_ID":61597,"ELEMENT_SET_NO":999,"REV_AT_EPOCH":5982,"BSTAR":0.0016514577,"MEAN_MOTION_DOT":5.98e-6,"MEAN_MOTION_DDOT":0},{"OBJECT_NAME":"ONEWEB-0690","OBJECT_ID":"2024-188E","EPOCH":"2025-12-11T04:56:12.888672","MEAN_MOTION":13.11417247,"ECCENTRICITY":0.00023548,"INCLINATION":87.887,"RA_OF_ASC_NODE":58.4815,"ARG_OF_PERICENTER":94.0633,"MEAN_ANOMALY":266.0764,"EPHEMERIS_TYPE":0,"CLASSIFICATION_TYPE":"U","NORAD_CAT_ID":61598,"ELEMENT_SET_NO":999,"REV_AT_EPOCH":5999,"BSTAR":0.0013784212,"MEAN_MOTION_DOT":5.01e-6,"MEAN_MOTION_DDOT":0},{"OBJECT_NAME":"ONEWEB-0691","OBJECT_ID":"2024-188F","EPOCH":"2025-12-11T06:38:44.873664","MEAN_MOTION":13.11423366,"ECCENTRICITY":0.00017257,"INCLINATION":87.8837,"RA_OF_ASC_NODE":58.3691,"ARG_OF_PERICENTER":118.4897,"MEAN_ANOMALY":241.6405,"EPHEMERIS_TYPE":0,"CLASSIFICATION_TYPE":"U","NORAD_CAT_ID":61599,"ELEMENT_SET_NO":999,"REV_AT_EPOCH":5985,"BSTAR":0.0015728731,"MEAN_MOTION_DOT":5.7e-6,"MEAN_MOTION_DDOT":0},{"OBJECT_NAME":"ONEWEB-0692","OBJECT_ID":"2024-188G","EPOCH":"2025-12-11T05:18:10.791936","MEAN_MOTION":13.11415137,"ECCENTRICITY":0.00012992,"INCLINATION":87.8855,"RA_OF_ASC_NODE":58.5243,"ARG_OF_PERICENTER":71.1819,"MEAN_ANOMALY":288.9449,"EPHEMERIS_TYPE":0,"CLASSIFICATION_TYPE":"U","NORAD_CAT_ID":61600,"ELEMENT_SET_NO":999,"REV_AT_EPOCH":5983,"BSTAR":-0.00029561354,"MEAN_MOTION_DOT":-9.2e-7,"MEAN_MOTION_DDOT":0},{"OBJECT_NAME":"ONEWEB-0693","OBJECT_ID":"2024-188H","EPOCH":"2025-12-11T04:15:27.114624","MEAN_MOTION":13.1764944,"ECCENTRICITY":0.00026023,"INCLINATION":87.9105,"RA_OF_ASC_NODE":43.3025,"ARG_OF_PERICENTER":98.6073,"MEAN_ANOMALY":261.5354,"EPHEMERIS_TYPE":0,"CLASSIFICATION_TYPE":"U","NORAD_CAT_ID":61601,"ELEMENT_SET_NO":999,"REV_AT_EPOCH":6112,"BSTAR":4.5875198e-5,"MEAN_MOTION_DOT":3.1e-7,"MEAN_MOTION_DDOT":0}]
