ONEWEB-0681             
1 56717U 23068H   25345.27332771  .00000021  00000+0  19168-4 0  9997
2 56717  87.9215 281.4560 0002433 100.5574 259.5835 13.21824946126264
ONEWEB-0682             
1 56718U 23068J   25345.24847074  .00000089  00000+0  20111-3 0  9995
2 56718  87.8991 296.6992 0001311  87.4981 272.6300 13.15545892124748
ONEWEB-0683             
1 56719U 23068K   25345.26987137 -.00000002  00000+0 -39114-4 0  9994
2 56719  87.9000 296.6792 0001535  78.5238 281.6065 13.15549490124716
ONEWEB-0684             
1 56720U 23068L   25345.27777824  .00000010  00000+0 -70718-5 0  9991
2 56720  87.9000 296.6720 0002802  53.8431 306.2958 13.15547349124545
ONEWEB-0686             
1 56721U 23068M   25345.25338416  .00000163  00000+0  40195-3 0  9992
2 56721  87.9036 266.2267 0001578  62.4805 297.6485 13.15057287126989
ONEWEB-0694             
1 56722U 23068N   25345.26995400  .00000038  00000+0  64930-4 0  9991
2 56722  87.9055 266.1573 0001252  74.4560 285.6709 13.16594709127040
ONEWEB-0696             
1 56723U 23068P   25345.23501046  .00000067  00000+0  14353-3 0  9993
2 56723  87.8988 296.7334 0002121  75.0248 285.1117 13.15548896124652
ONEWEB-0703             
1 56724U 23068Q   25345.24451642  .00000188  00000+0  46405-3 0  9998
2 56724  87.8985 296.7133 0002835  80.0735 280.0715 13.15549922124543
ONEWEB-0721             
1 56725U 23068R   25345.20148328 -.00000002  00000+0 -39885-4 0  9991
2 56725  86.6794 145.4846 0001406  95.8324 264.2970 13.22454026133096
ONEWEB-0015             
1 61594U 24188A   25345.23790996 -.00000472  00000+0 -13688-2 0  9994
2 61594  87.8857  58.5278 0001896 122.0731 238.0581 13.11418406 59825
ONEWEB-0687             
1 61595U 24188B   25345.21280786 -.00000380  00000+0 -10121-2 0  9991
2 61595  87.9101  43.2754 0001432 118.9767 241.1508 13.17649353 61143
ONEWEB-0688             
1 61596U 24188C   25345.24150161  .00000004  00000+0 -23303-4 0  9998
2 61596  87.9102  43.2703 0002448 132.5826 227.5512 13.17648440 61144
ONEWEB-0689             
1 61597U 24188D   25345.27182883  .00000598  00000+0  16515-2 0  9990
2 61597  87.8848  58.4555 0001376 106.4802 253.6478 13.11418876 59822
ONEWEB-0690             
1 61598U 24188E   25345.20570473  .00000501  00000+0  13784-2 0  9999
2 61598  87.8870  58.4815 0002354  94.0633 266.0764 13.11417247 59993
ONEWEB-0691             
1 61599U 24188F   25345.27690826  .00000570  00000+0  15729-2 0  9999
2 61599  87.8837  58.3691 0001725 118.4897 241.6405 13.11423366 59857
ONEWEB-0692             
1 61600U 24188G   25345.22095824 -.00000092  00000+0 -29561-3 0  9995
2 61600  87.8855  58.5243 0001299  71.1819 288.9449 13.11415137 59837
ONEWEB-0693             
1 61601U 24188H   25345.17739716  .00000031  00000+0  45875-4 0  9993
2 61601  87.9105  43.3025 0002602  98.6073 261.5354 13.17649440 61121
